[{"OBJECT_NAME":"CHUANGXIN 19 (CX-19)","OBJECT_ID":"2023-190A","EPOCH":"2026-03-09T23:33:22.167648","MEAN_MOTION":13.39542289,"ECCENTRICITY":0.00020233,"INCLINATION":86.5095,"RA_OF_ASC_NODE":6.8876,"ARG_OF_PERICENTER":68.0159,"MEAN_ANOMALY":292.1199,"EPHEMERIS_TYPE":0,"CLASSIFICATION_TYPE":"U","NORAD_CAT_ID":58505,"ELEMENT_SET_NO":999,"REV_AT_EPOCH":11141,"BSTAR":0.00014015152,"MEAN_MOTION_DOT":9.1e-7,"MEAN_MOTION_DDOT":0},{"OBJECT_NAME":"COSMOS 2251 DEB","OBJECT_ID":"1993-036TV","EPOCH":"2026-03-09T15:46:34.218336","MEAN_MOTION":13.8293242,"ECCENTRICITY":0.03174617,"INCLINATION":74.0048,"RA_OF_ASC_NODE":295.8692,"ARG_OF_PERICENTER":136.519,"MEAN_ANOMALY":226.1447,"EPHEMERIS_TYPE":0,"CLASSIFICATION_TYPE":"U","NORAD_CAT_ID":34476,"ELEMENT_SET_NO":999,"REV_AT_EPOCH":84839,"BSTAR":0.0032702697,"MEAN_MOTION_DOT":5.239e-5,"MEAN_MOTION_DDOT":0}]
